COSMOS 2251 DEB         
1 37321U 93036BKM 17345.43013070  .00035010  00000-0  10943-2 0  9993
2 37321  74.0231 251.5732 0001973 179.1308 180.9900 15.32998970442391
